ONEWEB-0116             
1 48046U 21025E   26168.96457186  .00000066  00000+0  14498-3 0  9991
2 48046  87.8963 320.0623 0001726  94.3204 265.8123 13.13468089253751
ONEWEB-0150             
1 48047U 21025F   26168.94088149  .00000295  00000+0  77290-3 0  9992
2 48047  87.8961 320.0645 0002014  94.0161 266.1198 13.13470197253641
ONEWEB-0107             
1 48048U 21025G   26168.94257466  .00000310  00000+0  81268-3 0  9991
2 48048  87.8963 320.0601 0002019 102.2262 257.9093 13.13470146253629
ONEWEB-0101             
1 48049U 21025H   26169.28620853 -.00000255  00000+0 -73260-3 0  9997
2 48049  87.8953 320.0070 0001811 102.2455 257.8877 13.13470258253647
ONEWEB-0113             
1 48050U 21025J   26168.92944749  .00000034  00000+0  59088-4 0  9998
2 48050  87.8957 319.9885 0001855  93.7010 266.4332 13.13893920253707
ONEWEB-0112             
1 48051U 21025K   26168.94765204  .00000283  00000+0  74012-3 0  9997
2 48051  87.8962 320.0571 0001791 104.3109 255.8219 13.13470112253694
ONEWEB-0156             
1 48052U 21025L   26168.95611228  .00000230  00000+0  59597-3 0  9998
2 48052  87.8962 320.0654 0001958  97.9214 262.2137 13.13469855253677
ONEWEB-0161             
1 48053U 21025M   26168.93071698  .00000072  00000+0  16312-3 0  9990
2 48053  87.8961 320.0718 0002010  99.6296 260.5060 13.13471136253601
ONEWEB-0158             
1 48054U 21025N   26168.96627084  .00000010  00000+0 -83658-5 0  9992
2 48054  87.8963 320.0617 0001585  96.0575 264.0735 13.13470974253730
ONEWEB-0157             
1 48055U 21025P   26168.83931161 -.00000269  00000+0 -77061-3 0  9999
2 48055  87.8959 320.0928 0002105 106.1379 253.9982 13.13470366253652
ONEWEB-0162             
1 48056U 21025Q   26168.96782597 -.00000015  00000+0 -77133-4 0  9991
2 48056  87.8959 320.0678 0001965  93.9028 266.2326 13.13469292253646
ONEWEB-0155             
1 48057U 21025R   26168.97472869 -.00000186  00000+0 -54443-3 0  9998
2 48057  87.8959 320.0625 0001820 102.3487 257.7846 13.13469788253780
ONEWEB-0149             
1 48058U 21025S   26168.92056494 -.00000189  00000+0 -55340-3 0  9996
2 48058  87.8961 320.0772 0002026  93.6168 266.5193 13.13470280253584
ONEWEB-0148             
1 48059U 21025T   26168.95949880  .00000179  00000+0  45424-3 0  9999
2 48059  87.8955 320.0762 0002403  92.2771 267.8633 13.13469731253718
ONEWEB-0160             
1 48060U 21025U   26168.97641705 -.00000273  00000+0 -78335-3 0  9992
2 48060  87.8955 320.0687 0001377  75.8150 284.3132 13.13470636253661
ONEWEB-0163             
1 48061U 21025V   26168.96118184  .00000119  00000+0  29015-3 0  9990
2 48061  87.8962 320.0664 0001990 104.0430 256.0921 13.13470463253785
